GALAXY 13 (HORIZONS-1)  
1 27954U 03044A   16271.33290762  .00000000  00000-0  10000-3 0  9991
2 27954   0.0027 345.4078 0001599 263.3450 110.6325  1.00268245 47564
ZHONGXING-20            
1 28082U 03052A   16270.89880625  .00000000  00000-0  10000-3 0  9996
2 28082   2.9888  72.5500 0004366 176.9192 183.5016  1.00271105 47169
YAMAL 202               
1 28089U 03053A   16271.15287962  .00000000  00000-0  10000-3 0  9999
2 28089   0.0568  88.1073 0001932 127.8505 254.5646  1.00274629 47080
AMOS-2                  
1 28132U 03059A   16270.26483329  .00000000  00000-0  10000-3 0  9990
2 28132   0.1693  89.4597 0002351  82.9412 284.5568  1.00271791 46798
EXPRESS-AM22 (SESAT 2)  
1 28134U 03060A   16270.48336909  .00000000  00000-0  10000-3 0  9999
2 28134   0.0548 284.0636 0000698 295.7881  39.9777  1.00267671 46674
AMC-10 (GE-10)          
1 28154U 04003A   16270.91299878  .00000000  00000-0  10000-3 0  9990
2 28154   0.0109 256.2655 0003980 212.9115  90.7068  1.00273297 46331
ABS-4 (MOBISAT-1)       
1 28184U 04007A   16270.63417464  .00000009  00000-0  00000+0 0  9993
2 28184   0.0202 242.3360 0001780 302.4777 110.3442  1.00272124 45974
EUTELSAT 7A             
1 28187U 04008A   16271.05727464  .00000016  00000-0  10000-3 0  9991
2 28187   0.0667  21.8774 0006237 193.8260 178.2407  1.00272417 45982
DIRECTV 7S              
1 28238U 04016A   16271.02497979  .00000002 -36571-8  10000-3 0  9995
2 28238   0.0288 308.8983 0002968 251.6546  55.6335  1.00269329 45464
AMC-11 (GE-11)          
1 28252U 04017A   16271.37860198  .00000000  00000-0  10000-3 0  9994
2 28252   0.0133 346.2796 0002508 220.7943 164.8335  1.00270978 45101
INTELSAT 10-02          
1 28358U 04022A   16270.32923041  .00000034  00000-0  10000-3 0  9995
2 28358   0.0477 101.0588 0001174 133.1426 248.9645  1.00271720 45021
APSTAR 5 (TELSTAR 18)   
1 28364U 04024A   16270.99899852 -.00000018  00000-0  10000-3 0  9992
2 28364   0.0208 105.8921 0002752  81.3913 316.5608  1.00264665 44964
ANIK F2                 
1 28378U 04027A   16270.59938216 -.00000084  00000-0  00000+0 0  9992
2 28378   0.0173 358.4917 0001019 256.3431 215.7079  1.00283946 44757
AMAZONAS 1              
1 28393U 04031A   16271.32143094  .00000000  00000-0  10000-3 0  9990
2 28393   1.2013  84.8599 0004707 114.0383 247.1490  1.00265514 44532
AMC-15                  
1 28446U 04041A   16270.71682750  .00000000  00000-0  10000-3 0  9999
2 28446   0.0076  92.5613 0002902  68.7592 357.6340  1.00268328 43796
AMC-16                  
1 28472U 04048A   16270.30603742 -.00000239  00000-0  00000+0 0  9994
2 28472   0.0044 148.6511 0002457  48.6676 193.3922  1.00273551 43217
NSS-10 (AMC-12)         
1 28526U 05003A   16270.77347851  .00000000  00000-0  10000-3 0  9993
2 28526   0.0264 302.2978 0002481 268.2231  36.4680  1.00265873 42710
XTAR-EUR                
1 28542U 05005A   16270.61893758  .00000000  00000-0  10000-3 0  9998
2 28542   0.0832 273.4043 0002549 277.7568  66.5064  1.00267696 42573
XM-3 (RHYTHM)           
1 28626U 05008A   16270.50341652  .00000000  00000-0  10000-3 0  9993
2 28626   0.0282  51.1232 0000691 239.9462 170.7583  1.00266145 42465
INMARSAT 4-F1           
1 28628U 05009A   16271.60581021  .00000000  00000-0  10000-3 0  9994
2 28628   2.8349   8.2879 0003733 215.3194 144.7322  1.00264158 42083
EXPRESS-AM2             
1 28629U 05010A   16269.98869800  .00000000  00000-0  10000-3 0  9999
2 28629   1.7911  80.4504 0001498 129.8848 230.8324  1.00266990 42103
APSTAR 6                
1 28638U 05012A   16271.02764316  .00000000  00000-0  10000-3 0  9995
2 28638   0.0159 108.4386 0002443  98.3582 303.4274  1.00269957 66826
SPACEWAY 1              
1 28644U 05015A   16270.68445942  .00000000  00000-0  10000-3 0  9997
2 28644   0.0131  96.7341 0001338 359.4864  53.1902  1.00268960 41923
DIRECTV 8               
1 28659U 05019A   16270.59466792  .00000000  00000-0  10000-3 0  9993
2 28659   0.0316  81.6160 0002915 106.9569 290.4696  1.00267532 41598
GALAXY 28 (G-28)        
1 28702U 05022A   16270.66831544  .00000000  00000-0  10000-3 0  9995
2 28702   0.0148 127.3225 0000848 311.6894  78.4936  1.00268481 41235
EXPRESS-AM3             
1 28707U 05023A   16271.32537391  .00000000  00000-0  10000-3 0  9998
2 28707   0.0289 264.8584 0000393  71.5966 250.2165  1.00266737 41245
THAICOM 4               
1 28786U 05028A   16269.58041751 -.00000395  00000-0  00000+0 0  9998
2 28786   0.0226 162.6697 0002104  26.2694 144.3067  1.00268444 40712
GALAXY 14 (G-14)        
1 28790U 05030A   16270.75769008  .00000000  00000-0  10000-3 0  9996
2 28790   0.0104  94.4830 0002463 101.9797 317.3070  1.00270088 40708
ANIK F1R                
1 28868U 05036A   16270.58697019  .00000000  00000-0  10000-3 0  9991
2 28868   0.0319  68.8544 0001340  51.9220 349.0523  1.00269452 40569
GALAXY 15 (G-15)        
1 28884U 05041A   16270.46492770  .00000047  00000-0  00000+0 0  9995
2 28884   0.0193 140.3972 0001514  83.1374 176.4866  1.00275347 40021
SYRACUSE 3A             
1 28885U 05041B   16270.62970093  .00000097  00000-0  00000+0 0  9998
2 28885   0.0192 151.5242 0003510  52.0457  75.9279  1.00272294 40120
INMARSAT 4-F2           
1 28899U 05044A   16270.82868123  .00000000  00000-0  10000-3 0  9997
2 28899   2.5236   8.2099 0002898 190.2634 169.8273  1.00269918 39909
TELKOM 2                
1 28902U 05046A   16269.93591013 -.00000395  00000-0  00000+0 0  9998
2 28902   0.0093 194.3840 0001267 342.7041 283.0363  1.00273254 39631
SPACEWAY 2              
1 28903U 05046B   16270.53262897  .00000000  00000-0  10000-3 0  9999
2 28903   0.0303  51.3030 0000972  21.3897  25.7503  1.00268274 39891
INSAT-4A                
1 28911U 05049A   16270.31154927  .00000000  00000-0  10000-3 0  9991
2 28911   0.0127 248.1560 0005012 340.7109 331.8065  1.00266761 38399
METEOSAT-9 (MSG-2)      
1 28912U 05049B   16270.26032071  .00000032  00000-0  00000+0 0  9991
2 28912   1.6876  69.2680 0000904 131.4123 267.8056  1.00274560 39473
EUTELSAT 172A (GE-23)   
1 28924U 05052A   16270.61609498  .00000000  00000-0  10000-3 0  9990
2 28924   0.0685  26.5217 0005709 162.1673 211.0194  1.00271199 39387
ECHOSTAR 10             
1 28935U 06003A   16270.73468822  .00000000  00000-0  10000-3 0  9996
2 28935   0.0096 117.7693 0002407  13.8425  28.6616  1.00269746 38920
HIMAWARI-7 (MTSAT-2)    
1 28937U 06004A   16270.90604286  .00000000  00000-0  10000-3 0  9994
2 28937   0.0410  87.8901 0003487 102.2810 287.0682  1.00263891 38751
SPAINSAT                
1 28945U 06007A   16270.57287957  .00000000  00000-0  10000-3 0  9991
2 28945   0.0175 189.3441 0005801  22.9354 329.7519  1.00266126 38621
EUTELSAT HOT BIRD 13E   
1 28946U 06007B   16270.29891059  .00000000  00000-0  10000-3 0  9995
2 28946   0.0533 107.3120 0006112  69.9034 308.9743  1.00272136 38701
JCSAT-5A                
1 29045U 06010A   16271.03579432  .00000000  00000-0  10000-3 0  9991
2 29045   0.0163 112.4276 0001525  36.3850   2.3918  1.00266791 38346
ASTRA 1KR               
1 29055U 06012A   16270.63540064  .00000000  00000-0  10000-3 0  9998
2 29055   0.0496 280.5509 0004531 291.6109  41.6585  1.00270410 38131
GOES 13                 
1 29155U 06018A   16270.58767266  .00000000  00000-0  10000-3 0  9994
2 29155   0.0399 124.1005 0001890   6.3488  12.2083  1.00262131 37928
EUTELSAT 113 WEST A     
1 29162U 06020A   16271.57296277  .00000000  00000-0  10000-3 0  9994
2 29162   0.0263  36.4653 0002814 160.2094 263.4217  1.00269979 37870
THAICOM 5               
1 29163U 06020B   16270.60321897 -.00000153  00000-0  00000+0 0  9990
2 29163   0.0225 254.9305 0005950 344.5013  62.0708  1.00271876 37925
GALAXY 16 (G-16)        
1 29236U 06023A   16270.72826699  .00000032  00000-0  10000-3 0  9997
2 29236   0.0197 160.3422 0002512  19.1420 349.6313  1.00267334 37674
EUTELSAT HOT BIRD 13B   
1 29270U 06032A   16270.83339703  .00000000  00000-0  10000-3 0  9997
2 29270   0.0675 331.1217 0002347 225.0739 122.8939  1.00270280 32911
JCSAT-3A                
1 29272U 06033A   16271.15430514  .00000000  00000-0  10000-3 0  9998
2 29272   0.0074 233.2909 0002155 322.5131 354.0613  1.00263353 37165
SYRACUSE 3B             
1 29273U 06033B   16271.33193265  .00000000  00000-0  10000-3 0  9998
2 29273   0.0310  80.8309 0003114 126.4334 273.6191  1.00269934 37169
KOREASAT 5 (MUGUNGWHA 5)
1 29349U 06034A   16270.59901161 -.00000390  00000-0  00000+0 0  9990
2 29349   0.0050  83.2950 0000668 136.0442 115.1934  1.00272275 37034
ZHONGXING-22A           
1 29398U 06038A   16270.86628449  .00000000  00000-0  10000-3 0  9995
2 29398   5.3290  59.3992 0009277 161.7711 198.4543  1.00263491 36816
DIRECTV 9S              
1 29494U 06043A   16270.69803435  .00000000  00000-0  10000-3 0  9999
2 29494   0.0246 136.9706 0003013  70.7113 308.4227  1.00267513 36516
OPTUS D1                
1 29495U 06043B   16270.81815946  .00000000  00000-0  10000-3 0  9994
2 29495   0.0308  53.8959 0003538 135.4438 271.2437  1.00268028 36549
XM-4 (BLUES)            
1 29520U 06049A   16271.58526937  .00000000  00000-0  10000-3 0  9993
2 29520   0.0273  43.5993 0000589 193.9964 224.7096  1.00270788 36404
BADR-4                  
1 29526U 06051A   16270.79895417  .00000000  00000-0  10000-3 0  9996
2 29526   0.0451 337.5678 0003027 245.0248  97.0647  1.00270479 36284
FENGYUN 2D              
1 29640U 06053A   16270.82287615  .00000000  00000-0  10000-3 0  9994
2 29640   3.9651  65.7098 0001859 268.5785  91.6893  1.00270507 35967
WILDBLUE-1              
1 29643U 06054A   16270.73680698  .00000000  00000-0  10000-3 0  9996
2 29643   0.0226 143.1708 0001701  49.9274 326.9691  1.00269481 35942
AMC-18                  
1 29644U 06054B   16270.80954166  .00000000  00000-0  10000-3 0  9999
2 29644   0.0169 214.3861 0002586   0.1278 338.0120  1.00268348 35947
